{"type": "FeatureCollection", "features": [ {"type": "Feature", "properties": {"norad_id": 29853, "name": "FENGYUN 1C DEB", "group": "fengyun-1c-debris", "lat": 7.1398296749929715, "lon": -73.4435423750844, "alt_km": 854.5358209478591, "timestamp": "2025-12-09T14:52:26.433510+00:00", "meta": {"OBJECT_NAME": "FENGYUN 1C DEB", "OBJECT_ID": "1999-025EX", "EPOCH": "2025-12-09T07:08:31.572960", "MEAN_MOTION": 13.93775136, "ECCENTRICITY": 0.01613795, "INCLINATION": 98.4581, "RA_OF_ASC_NODE": 105.1935, "ARG_OF_PERICENTER": 232.1087, "MEAN_ANOMALY": 126.539, "EPHEMERIS_TYPE": 0, "CLASSIFICATION_TYPE": "U", "NORAD_CAT_ID": 29853, "ELEMENT_SET_NO": 999, "REV_AT_EPOCH": 95621, "BSTAR": 0.0022694041, "MEAN_MOTION_DOT": 3.29e-05, "MEAN_MOTION_DDOT": 0}, "tle": {"line1": "1 29853U 99025EX  25343.29758765  .00003290  00000+0  22694-2 0  9996", "line2": "2 29853  98.4581 105.1935 0161379 232.1087 126.5390 13.93775136956212"}}, "geometry": {"type": "Point", "coordinates": [-73.4435423750844, 7.1398296749929715]}}, {"type": "Feature", "properties": {"norad_id": 29854, "name": "FENGYUN 1C DEB", "group": "fengyun-1c-debris", "lat": -4.130275802823523, "lon": -35.738111553109896, "alt_km": 1016.1454243827493, "timestamp": "2025-12-09T14:52:26.433520+00:00", "meta": {"OBJECT_NAME": "FENGYUN 1C DEB", "OBJECT_ID": "1999-025EY", "EPOCH": "2025-12-08T22:58:54.016896", "MEAN_MOTION": 13.8333767, "ECCENTRICITY": 0.0147424, "INCLINATION": 98.9272, "RA_OF_ASC_NODE": 144.2837, "ARG_OF_PERICENTER": 60.9904, "MEAN_ANOMALY": 65.7926, "EPHEMERIS_TYPE": 0, "CLASSIFICATION_TYPE": "U", "NORAD_CAT_ID": 29854, "ELEMENT_SET_NO": 999, "REV_AT_EPOCH": 95291, "BSTAR": 0.0003483, "MEAN_MOTION_DOT": 3.76e-06, "MEAN_MOTION_DDOT": 0}, "tle": {"line1": "1 29854U 99025EY  25342.95756964  .00000376  00000+0  34830-3 0  9996", "line2": "2 29854  98.9272 144.2837 0147424  60.9904  65.7926 13.83337670952918"}}, "geometry": {"type": "Point", "coordinates": [-35.738111553109896, -4.130275802823523]}}, {"type": "Feature", "properties": {"norad_id": 29855, "name": "FENGYUN 1C DEB", "group": "fengyun-1c-debris", "lat": 34.54628867796527, "lon": 111.32396924356559, "alt_km": 883.7113510853596, "timestamp": "2025-12-09T14:52:26.433531+00:00", "meta": {"OBJECT_NAME": "FENGYUN 1C DEB", "OBJECT_ID": "1999-025EZ", "EPOCH": "2025-12-08T19:38:38.755104", "MEAN_MOTION": 14.01536778, "ECCENTRICITY": 0.01840896, "INCLINATION": 98.1811, "RA_OF_ASC_NODE": 284.9209, "ARG_OF_PERICENTER": 57.2126, "MEAN_ANOMALY": 5.1799, "EPHEMERIS_TYPE": 0, "CLASSIFICATION_TYPE": "U", "NORAD_CAT_ID": 29855, "ELEMENT_SET_NO": 999, "REV_AT_EPOCH": 95657, "BSTAR": 0.0036032732, "MEAN_MOTION_DOT": 6.286e-05, "MEAN_MOTION_DDOT": 0}, "tle": {"line1": "1 29855U 99025EZ  25342.81850411  .00006286  00000+0  36033-2 0  9996", "line2": "2 29855  98.1811 284.9209 0184089  57.2126   5.1799 14.01536778956571"}}, "geometry": {"type": "Point", "coordinates": [111.32396924356559, 34.54628867796527]}}, {"type": "Feature", "properties": {"norad_id": 29856, "name": "FENGYUN 1C DEB", "group": "fengyun-1c-debris", "lat": -63.46511280846697, "lon": -120.34295269840148, "alt_km": 650.5602655277507, "timestamp": "2025-12-09T14:52:26.433541+00:00", "meta": {"OBJECT_NAME": "FENGYUN 1C DEB", "OBJECT_ID": "1999-025FA", "EPOCH": "2025-12-09T05:40:48.671616", "MEAN_MOTION": 14.47603082, "ECCENTRICITY": 0.02629609, "INCLINATION": 98.6887, "RA_OF_ASC_NODE": 77.0961, "ARG_OF_PERICENTER": 308.4739, "MEAN_ANOMALY": 103.7478, "EPHEMERIS_TYPE": 0, "CLASSIFICATION_TYPE": "U", "NORAD_CAT_ID": 29856, "ELEMENT_SET_NO": 999, "REV_AT_EPOCH": 96324, "BSTAR": 0.0030179918, "MEAN_MOTION_DOT": 0.00017182, "MEAN_MOTION_DDOT": 0}, "tle": {"line1": "1 29856U 99025FA  25343.23667444  .00017182  00000+0  30180-2 0  9990", "line2": "2 29856  98.6887  77.0961 0262960 308.4739 103.7478 14.47603082963246"}}, "geometry": {"type": "Point", "coordinates": [-120.34295269840148, -63.46511280846697]}}, {"type": "Feature", "properties": {"norad_id": 29857, "name": "FENGYUN 1C DEB", "group": "fengyun-1c-debris", "lat": 68.44895026371995, "lon": -30.751643804341235, "alt_km": 1034.397547289699, "timestamp": "2025-12-09T14:52:26.433551+00:00", "meta": {"OBJECT_NAME": "FENGYUN 1C DEB", "OBJECT_ID": "1999-025FB", "EPOCH": "2025-12-09T00:38:02.211936", "MEAN_MOTION": 13.81856627, "ECCENTRICITY": 0.01928567, "INCLINATION": 98.4224, "RA_OF_ASC_NODE": 350.7509, "ARG_OF_PERICENTER": 304.5519, "MEAN_ANOMALY": 53.7567, "EPHEMERIS_TYPE": 0, "CLASSIFICATION_TYPE": "U", "NORAD_CAT_ID": 29857, "ELEMENT_SET_NO": 999, "REV_AT_EPOCH": 94724, "BSTAR": 0.0022325104, "MEAN_MOTION_DOT": 2.718e-05, "MEAN_MOTION_DDOT": 0}, "tle": {"line1": "1 29857U 99025FB  25343.02641449  .00002718  00000+0  22325-2 0  9996", "line2": "2 29857  98.4224 350.7509 0192856 304.5519  53.7567 13.81856627947245"}}, "geometry": {"type": "Point", "coordinates": [-30.751643804341235, 68.44895026371995]}}, {"type": "Feature", "properties": {"norad_id": 29858, "name": "FENGYUN 1C DEB", "group": "fengyun-1c-debris", "lat": 13.682722451010259, "lon": 83.07453060900843, "alt_km": 894.6566477834685, "timestamp": "2025-12-09T14:52:26.433562+00:00", "meta": {"OBJECT_NAME": "FENGYUN 1C DEB", "OBJECT_ID": "1999-025FC", "EPOCH": "2025-12-09T06:21:16.336224", "MEAN_MOTION": 13.77775194, "ECCENTRICITY": 0.0198707, "INCLINATION": 99.2131, "RA_OF_ASC_NODE": 84.9945, "ARG_OF_PERICENTER": 73.593, "MEAN_ANOMALY": 342.5631, "EPHEMERIS_TYPE": 0, "CLASSIFICATION_TYPE": "U", "NORAD_CAT_ID": 29858, "ELEMENT_SET_NO": 999, "REV_AT_EPOCH": 94506, "BSTAR": 0.0016719317, "MEAN_MOTION_DOT": 1.894e-05, "MEAN_MOTION_DDOT": 0}, "tle": {"line1": "1 29858U 99025FC  25343.26477241  .00001894  00000+0  16719-2 0  9994", "line2": "2 29858  99.2131  84.9945 0198707  73.5930 342.5631 13.77775194945066"}}, "geometry": {"type": "Point", "coordinates": [83.07453060900843, 13.682722451010259]}}, {"type": "Feature", "properties": {"norad_id": 29859, "name": "FENGYUN 1C DEB", "group": "fengyun-1c-debris", "lat": -22.30299978274808, "lon": -177.82526870932472, "alt_km": 1081.0404661265966, "timestamp": "2025-12-09T14:52:26.433572+00:00", "meta": {"OBJECT_NAME": "FENGYUN 1C DEB", "OBJECT_ID": "1999-025FD", "EPOCH": "2025-12-09T01:00:20.205792", "MEAN_MOTION": 13.73996649, "ECCENTRICITY": 0.02951461, "INCLINATION": 98.335, "RA_OF_ASC_NODE": 178.2223, "ARG_OF_PERICENTER": 222.974, "MEAN_ANOMALY": 134.8016, "EPHEMERIS_TYPE": 0, "CLASSIFICATION_TYPE": "U", "NORAD_CAT_ID": 29859, "ELEMENT_SET_NO": 999, "REV_AT_EPOCH": 93929, "BSTAR": 0.0034092392, "MEAN_MOTION_DOT": 4.349e-05, "MEAN_MOTION_DDOT": 0}, "tle": {"line1": "1 29859U 99025FD  25343.04190053  .00004349  00000+0  34092-2 0  9996", "line2": "2 29859  98.3350 178.2223 0295146 222.9740 134.8016 13.73996649939293"}}, "geometry": {"type": "Point", "coordinates": [-177.82526870932472, -22.30299978274808]}}, {"type": "Feature", "properties": {"norad_id": 29860, "name": "FENGYUN 1C DEB", "group": "fengyun-1c-debris", "lat": 76.09410396196458, "lon": -19.94851466944304, "alt_km": 954.343820899413, "timestamp": "2025-12-09T14:52:26.433582+00:00", "meta": {"OBJECT_NAME": "FENGYUN 1C DEB", "OBJECT_ID": "1999-025FE", "EPOCH": "2025-12-09T00:49:55.337664", "MEAN_MOTION": 13.77498639, "ECCENTRICITY": 0.02210426, "INCLINATION": 98.6171, "RA_OF_ASC_NODE": 17.2874, "ARG_OF_PERICENTER": 353.3281, "MEAN_ANOMALY": 63.3645, "EPHEMERIS_TYPE": 0, "CLASSIFICATION_TYPE": "U", "NORAD_CAT_ID": 29860, "ELEMENT_SET_NO": 999, "REV_AT_EPOCH": 94088, "BSTAR": 0.0028297245, "MEAN_MOTION_DOT": 3.336e-05, "MEAN_MOTION_DDOT": 0}, "tle": {"line1": "1 29860U 99025FE  25343.03466826  .00003336  00000+0  28297-2 0  9996", "line2": "2 29860  98.6171  17.2874 0221042 353.3281  63.3645 13.77498639940887"}}, "geometry": {"type": "Point", "coordinates": [-19.94851466944304, 76.09410396196458]}}, {"type": "Feature", "properties": {"norad_id": 29865, "name": "FENGYUN 1C DEB", "group": "fengyun-1c-debris", "lat": 69.61764978822468, "lon": -130.99086632029898, "alt_km": 598.9000146871085, "timestamp": "2025-12-09T14:52:26.433593+00:00", "meta": {"OBJECT_NAME": "FENGYUN 1C DEB", "OBJECT_ID": "1999-025FK", "EPOCH": "2025-12-09T05:30:46.117152", "MEAN_MOTION": 14.82532722, "ECCENTRICITY": 0.0116192, "INCLINATION": 98.9199, "RA_OF_ASC_NODE": 253.5805, "ARG_OF_PERICENTER": 152.4361, "MEAN_ANOMALY": 359.9946, "EPHEMERIS_TYPE": 0, "CLASSIFICATION_TYPE": "U", "NORAD_CAT_ID": 29865, "ELEMENT_SET_NO": 999, "REV_AT_EPOCH": 706, "BSTAR": 0.00081445044, "MEAN_MOTION_DOT": 7.299e-05, "MEAN_MOTION_DDOT": 0}, "tle": {"line1": "1 29865U 99025FK  25343.22970043  .00007299  00000+0  81445-3 0  9990", "line2": "2 29865  98.9199 253.5805 0116192 152.4361 359.9946 14.82532722  7061"}}, "geometry": {"type": "Point", "coordinates": [-130.99086632029898, 69.61764978822468]}}, {"type": "Feature", "properties": {"norad_id": 29866, "name": "FENGYUN 1C DEB", "group": "fengyun-1c-debris", "lat": 47.888744529547104, "lon": -39.56924824306599, "alt_km": 812.1909910300319, "timestamp": "2025-12-09T14:52:26.433603+00:00", "meta": {"OBJECT_NAME": "FENGYUN 1C DEB", "OBJECT_ID": "1999-025FL", "EPOCH": "2025-12-09T05:06:09.256032", "MEAN_MOTION": 14.64192362, "ECCENTRICITY": 0.01942437, "INCLINATION": 98.0374, "RA_OF_ASC_NODE": 329.0264, "ARG_OF_PERICENTER": 226.0478, "MEAN_ANOMALY": 197.8909, "EPHEMERIS_TYPE": 0, "CLASSIFICATION_TYPE": "U", "NORAD_CAT_ID": 29866, "ELEMENT_SET_NO": 999, "REV_AT_EPOCH": 275, "BSTAR": 0.00045857623, "MEAN_MOTION_DOT": 3.122e-05, "MEAN_MOTION_DDOT": 0}, "tle": {"line1": "1 29866U 99025FL  25343.21260713  .00003122  00000+0  45858-3 0  9995", "line2": "2 29866  98.0374 329.0264 0194243 226.0478 197.8909 14.64192362  2757"}}, "geometry": {"type": "Point", "coordinates": [-39.56924824306599, 47.888744529547104]}}]}